[
  {
    "COMMENT": "GENERATED VIA SPACETRACK.ORG API",
    "ORIGINATOR": "18 SPCS",
    "NORAD_CAT_ID": "41335",
    "OBJECT_NAME": "SENTINEL 3A",
    "OBJECT_TYPE": "PAYLOAD",
    "CLASSIFICATION_TYPE": "U",
    "INTLDES": "16011A",
    "EPOCH": "2023-05-02 20:28:01",
    "EPOCH_MICROSECONDS": "986528",
    "MEAN_MOTION": "14.26736019",
    "ECCENTRICITY": "0.0001225",
    "INCLINATION": "98.6236",
    "RA_OF_ASC_NODE": "190.566",
    "ARG_OF_PERICENTER": "105.1314",
    "MEAN_ANOMALY": "255.0002",
    "EPHEMERIS_TYPE": "0",
    "ELEMENT_SET_NO": "999",
    "REV_AT_EPOCH": "37531",
    "BSTAR": "0.000089382",
    "MEAN_MOTION_DOT": "0.00000173",
    "MEAN_MOTION_DDOT": "0",
    "FILE": "3899277",
    "TLE_LINE0": "0 SENTINEL 3A",
    "TLE_LINE1": "1 41335U 16011A   23122.85280077  .00000173  00000-0  89382-4 0  9997",
    "TLE_LINE2": "2 41335  98.6236 190.5660 0001225 105.1314 255.0002 14.26736019375316",
    "OBJECT_ID": "2016-011A",
    "OBJECT_NUMBER": "41335",
    "SEMIMAJOR_AXIS": "7180.799",
    "PERIOD": "100.930",
    "APOGEE": "803.543",
    "PERIGEE": "801.784",
    "DECAYED": "0"
  },
  {
    "COMMENT": "GENERATED VIA SPACETRACK.ORG API",
    "ORIGINATOR": "18 SPCS",
    "NORAD_CAT_ID": "41335",
    "OBJECT_NAME": "SENTINEL 3A",
    "OBJECT_TYPE": "PAYLOAD",
    "CLASSIFICATION_TYPE": "U",
    "INTLDES": "16011A",
    "EPOCH": "2023-05-03 01:30:59",
    "EPOCH_MICROSECONDS": "659200",
    "MEAN_MOTION": "14.26736125",
    "ECCENTRICITY": "0.0001226",
    "INCLINATION": "98.6236",
    "RA_OF_ASC_NODE": "190.7734",
    "ARG_OF_PERICENTER": "105.3569",
    "MEAN_ANOMALY": "254.7747",
    "EPHEMERIS_TYPE": "0",
    "ELEMENT_SET_NO": "999",
    "REV_AT_EPOCH": "37534",
    "BSTAR": "0.000090376",
    "MEAN_MOTION_DOT": "0.00000175",
    "MEAN_MOTION_DDOT": "0",
    "FILE": "3899373",
    "TLE_LINE0": "0 SENTINEL 3A",
    "TLE_LINE1": "1 41335U 16011A   23123.06319050  .00000175  00000-0  90376-4 0  9992",
    "TLE_LINE2": "2 41335  98.6236 190.7734 0001226 105.3569 254.7747 14.26736125375348",
    "OBJECT_ID": "2016-011A",
    "OBJECT_NUMBER": "41335",
    "SEMIMAJOR_AXIS": "7180.798",
    "PERIOD": "100.930",
    "APOGEE": "803.544",
    "PERIGEE": "801.783",
    "DECAYED": "0"
  },
  {
    "COMMENT": "GENERATED VIA SPACETRACK.ORG API",
    "ORIGINATOR": "18 SPCS",
    "NORAD_CAT_ID": "25544",
    "OBJECT_NAME": "ISS (ZARYA)",
    "OBJECT_TYPE": "PAYLOAD",
    "CLASSIFICATION_TYPE": "U",
    "INTLDES": "98067A",
    "EPOCH": "2023-05-03 01:43:13",
    "EPOCH_MICROSECONDS": "601280",
    "MEAN_MOTION": "15.49871224",
    "ECCENTRICITY": "0.0005835",
    "INCLINATION": "51.6404",
    "RA_OF_ASC_NODE": "192.1248",
    "ARG_OF_PERICENTER": "297.5376",
    "MEAN_ANOMALY": "132.6649",
    "EPHEMERIS_TYPE": "0",
    "ELEMENT_SET_NO": "999",
    "REV_AT_EPOCH": "39479",
    "BSTAR": "0.00024662",
    "MEAN_MOTION_DOT": "0.00013585",
    "MEAN_MOTION_DDOT": "0",
    "FILE": "3899274",
    "TLE_LINE0": "0 ISS (ZARYA)",
    "TLE_LINE1": "1 25544U 98067A   23123.07168520  .00013585  00000-0  24662-3 0  9995",
    "TLE_LINE2": "2 25544  51.6404 192.1248 0005835 297.5376 132.6649 15.49871224394795",
    "OBJECT_ID": "1998-067A",
    "OBJECT_NUMBER": "25544",
    "SEMIMAJOR_AXIS": "6795.239",
    "PERIOD": "92.911",
    "APOGEE": "421.069",
    "PERIGEE": "413.139",
    "DECAYED": "0"
  },
  {
    "COMMENT": "GENERATED VIA SPACETRACK.ORG API",
    "ORIGINATOR": "18 SPCS",
    "NORAD_CAT_ID": "25544",
    "OBJECT_NAME": "ISS (ZARYA)",
    "OBJECT_TYPE": "PAYLOAD",
    "CLASSIFICATION_TYPE": "U",
    "INTLDES": "98067A",
    "EPOCH": "2023-05-03 04:55:33",
    "EPOCH_MICROSECONDS": "762432",
    "MEAN_MOTION": "15.49875286",
    "ECCENTRICITY": "0.0005847",
    "INCLINATION": "51.6403",
    "RA_OF_ASC_NODE": "191.4628",
    "ARG_OF_PERICENTER": "298.3997",
    "MEAN_ANOMALY": "157.5371",
    "EPHEMERIS_TYPE": "0",
    "ELEMENT_SET_NO": "999",
    "REV_AT_EPOCH": "39481",
    "BSTAR": "0.00024803",
    "MEAN_MOTION_DOT": "0.00013668",
    "MEAN_MOTION_DDOT": "0",
    "FILE": "3899305",
    "TLE_LINE0": "0 ISS (ZARYA)",
    "TLE_LINE1": "1 25544U 98067A   23123.20525188  .00013668  00000-0  24803-3 0  9996",
    "TLE_LINE2": "2 25544  51.6403 191.4628 0005847 298.3997 157.5371 15.49875286394812",
    "OBJECT_ID": "1998-067A",
    "OBJECT_NUMBER": "25544",
    "SEMIMAJOR_AXIS": "6795.228",
    "PERIOD": "92.911",
    "APOGEE": "421.066",
    "PERIGEE": "413.119",
    "DECAYED": "0"
  },
  {
    "COMMENT": "GENERATED VIA SPACETRACK.ORG API",
    "ORIGINATOR": "18 SPCS",
    "NORAD_CAT_ID": "25544",
    "OBJECT_NAME": "ISS (ZARYA)",
    "OBJECT_TYPE": "PAYLOAD",
    "CLASSIFICATION_TYPE": "U",
    "INTLDES": "98067A",
    "EPOCH": "2023-05-03 08:07:32",
    "EPOCH_MICROSECONDS": "773728",
    "MEAN_MOTION": "15.49879055",
    "ECCENTRICITY": "0.0005847",
    "INCLINATION": "51.6403",
    "RA_OF_ASC_NODE": "190.8021",
    "ARG_OF_PERICENTER": "298.888",
    "MEAN_ANOMALY": "181.4177",
    "EPHEMERIS_TYPE": "0",
    "ELEMENT_SET_NO": "999",
    "REV_AT_EPOCH": "39483",
    "BSTAR": "0.00024803",
    "MEAN_MOTION_DOT": "0.00013669",
    "MEAN_MOTION_DDOT": "0",
    "FILE": "3899562",
    "TLE_LINE0": "0 ISS (ZARYA)",
    "TLE_LINE1": "1 25544U 98067A   23123.33857377  .00013669  00000-0  24803-3 0  9999",
    "TLE_LINE2": "2 25544  51.6403 190.8021 0005847 298.8880 181.4177 15.49879055394838",
    "OBJECT_ID": "1998-067A",
    "OBJECT_NUMBER": "25544",
    "SEMIMAJOR_AXIS": "6795.217",
    "PERIOD": "92.910",
    "APOGEE": "421.055",
    "PERIGEE": "413.108",
    "DECAYED": "0"
  },
  {
    "COMMENT": "GENERATED VIA SPACETRACK.ORG API",
    "ORIGINATOR": "18 SPCS",
    "NORAD_CAT_ID": "25544",
    "OBJECT_NAME": "ISS (ZARYA)",
    "OBJECT_TYPE": "PAYLOAD",
    "CLASSIFICATION_TYPE": "U",
    "INTLDES": "98067A",
    "EPOCH": "2023-05-03 08:07:32",
    "EPOCH_MICROSECONDS": "773728",
    "MEAN_MOTION": "15.49877874",
    "ECCENTRICITY": "0.0005878",
    "INCLINATION": "51.6399",
    "RA_OF_ASC_NODE": "190.8002",
    "ARG_OF_PERICENTER": "298.5203",
    "MEAN_ANOMALY": "181.7828",
    "EPHEMERIS_TYPE": "0",
    "ELEMENT_SET_NO": "999",
    "REV_AT_EPOCH": "39483",
    "BSTAR": "0.00024432",
    "MEAN_MOTION_DOT": "0.00013457",
    "MEAN_MOTION_DDOT": "0",
    "FILE": "3899563",
    "TLE_LINE0": "0 ISS (ZARYA)",
    "TLE_LINE1": "1 25544U 98067A   23123.33857377  .00013457  00000-0  24432-3 0  9992",
    "TLE_LINE2": "2 25544  51.6399 190.8002 0005878 298.5203 181.7828 15.49877874394834",
    "OBJECT_ID": "1998-067A",
    "OBJECT_NUMBER": "25544",
    "SEMIMAJOR_AXIS": "6795.220",
    "PERIOD": "92.911",
    "APOGEE": "421.079",
    "PERIGEE": "413.091",
    "DECAYED": "0"
  },
  {
    "COMMENT": "GENERATED VIA SPACETRACK.ORG API",
    "ORIGINATOR": "18 SPCS",
    "NORAD_CAT_ID": "41335",
    "OBJECT_NAME": "SENTINEL 3A",
    "OBJECT_TYPE": "PAYLOAD",
    "CLASSIFICATION_TYPE": "U",
    "INTLDES": "16011A",
    "EPOCH": "2023-05-03 11:36:55",
    "EPOCH_MICROSECONDS": "15776",
    "MEAN_MOTION": "14.26736284",
    "ECCENTRICITY": "0.0001234",
    "INCLINATION": "98.6236",
    "RA_OF_ASC_NODE": "191.1881",
    "ARG_OF_PERICENTER": "105.042",
    "MEAN_ANOMALY": "255.0897",
    "EPHEMERIS_TYPE": "0",
    "ELEMENT_SET_NO": "999",
    "REV_AT_EPOCH": "37540",
    "BSTAR": "0.000091123",
    "MEAN_MOTION_DOT": "0.00000177",
    "MEAN_MOTION_DDOT": "0",
    "FILE": "3899606",
    "TLE_LINE0": "0 SENTINEL 3A",
    "TLE_LINE1": "1 41335U 16011A   23123.48397009  .00000177  00000-0  91123-4 0  9991",
    "TLE_LINE2": "2 41335  98.6236 191.1881 0001234 105.0420 255.0897 14.26736284375401",
    "OBJECT_ID": "2016-011A",
    "OBJECT_NUMBER": "41335",
    "SEMIMAJOR_AXIS": "7180.798",
    "PERIOD": "100.930",
    "APOGEE": "803.549",
    "PERIGEE": "801.777",
    "DECAYED": "0"
  },
  {
    "COMMENT": "GENERATED VIA SPACETRACK.ORG API",
    "ORIGINATOR": "18 SPCS",
    "NORAD_CAT_ID": "25544",
    "OBJECT_NAME": "ISS (ZARYA)",
    "OBJECT_TYPE": "PAYLOAD",
    "CLASSIFICATION_TYPE": "U",
    "INTLDES": "98067A",
    "EPOCH": "2023-05-03 12:51:15",
    "EPOCH_MICROSECONDS": "611904",
    "MEAN_MOTION": "15.49880993",
    "ECCENTRICITY": "0.0006104",
    "INCLINATION": "51.642",
    "RA_OF_ASC_NODE": "189.8256",
    "ARG_OF_PERICENTER": "301.0782",
    "MEAN_ANOMALY": "199.2512",
    "EPHEMERIS_TYPE": "0",
    "ELEMENT_SET_NO": "999",
    "REV_AT_EPOCH": "39486",
    "BSTAR": "0.0002198",
    "MEAN_MOTION_DOT": "0.0001206",
    "MEAN_MOTION_DDOT": "0",
    "FILE": "3899595",
    "TLE_LINE0": "0 ISS (ZARYA)",
    "TLE_LINE1": "1 25544U 98067A   23123.53559736  .00012060  00000-0  21980-3 0  9996",
    "TLE_LINE2": "2 25544  51.6420 189.8256 0006104 301.0782 199.2512 15.49880993394866",
    "OBJECT_ID": "1998-067A",
    "OBJECT_NUMBER": "25544",
    "SEMIMAJOR_AXIS": "6795.211",
    "PERIOD": "92.910",
    "APOGEE": "421.224",
    "PERIGEE": "412.928",
    "DECAYED": "0"
  }
]